GSAT0212 (GALILEO 16)
1 41860U 16069B   25352.51792474 -.00000008  00000+0  00000+0 0  9994
2 41860  55.3831 106.0857 0002064  21.7660 338.2025  1.70474692 56573